STARLINK-34772          
1 65020U 25161F   26068.84041188  .00027179  00000+0  92599-3 0  9996
2 65020  53.1570 293.4520 0000838 108.4663 251.6429 15.30214575 35468
GLOBAL-34               
1 68098U 26043A   26068.47466435  .00014018  00000+0  45822-3 0  9994
2 68098  42.0215  76.7399 0006884 289.2632  70.7460 15.31488019   538
